[Satellite]
VERSION=1.1
NAME=INMARSAT 4-F1
NICKNAME=INMARSAT 4-F1
TLE1=1 28628U 05009A   15055.32380148 -.00000282  00000-0  10000-3 0  9992
TLE2=2 28628   2.7468   0.2442 0002637 323.9981  89.6604  1.00271075 36263
